*******************************************************************************
Ephemeris / WWW_USER Wed Mar 14 15:54:30 2018 Pasadena, USA      / Horizons    
*******************************************************************************
Target body name: Styx (905)                      {source: plu055l_merged}
Center body name: Solar System Barycenter (0)     {source: DE431mx}
Center-site name: BODY CENTER
*******************************************************************************
Start time      : A.D. 2000-Jan-01 00:00:00.0000 TDB
Stop  time      : A.D. 2001-Jan-01 00:00:00.0000 TDB
Step-size       : 7200 minutes
*******************************************************************************
Center geodetic : 0.00000000,0.00000000,0.0000000 {E-lon(deg),Lat(deg),Alt(km)}
Center cylindric: 0.00000000,0.00000000,0.0000000 {E-lon(deg),Dxy(km),Dz(km)}
Center radii    : (undefined)                                                  
Output units    : AU-D                                                         
Output type     : GEOMETRIC cartesian states
Output format   : 2 (position and velocity)
Reference frame : ICRF/J2000.0                                                 
Coordinate systm: Ecliptic and Mean Equinox of Reference Epoch                 
*******************************************************************************
JDTDB
   X     Y     Z
   VX    VY    VZ
*******************************************************************************
$$SOE
2451754.500000000 = A.D. 2000-Jul-29 00:00:00.0000 TDB 
  -9.244739638745461E+00 -2.827893671284096E+01  5.700012202916307E+00
   3.018680501553732E-03 -1.472121222761016E-03 -6.448880606903345E-04
2451759.500000000 = A.D. 2000-Aug-03 00:00:00.0000 TDB 
  -9.229409633201346E+00 -2.828609762816135E+01  5.696690335079144E+00
   3.109577312142188E-03 -1.411418847592994E-03 -7.080023324586248E-04
2451764.500000000 = A.D. 2000-Aug-08 00:00:00.0000 TDB 
  -9.213838738541337E+00 -2.829330542034356E+01  5.692864569189809E+00
   3.095418296217802E-03 -1.486940911952030E-03 -8.059869412759600E-04
2451769.500000000 = A.D. 2000-Aug-13 00:00:00.0000 TDB 
  -9.198600297241756E+00 -2.830094070819598E+01  5.688924905225730E+00
   3.004764131536649E-03 -1.546844326322162E-03 -7.457404566044080E-04
2451774.500000000 = A.D. 2000-Aug-18 00:00:00.0000 TDB 
  -9.183604130394512E+00 -2.830852258668799E+01  5.685483343493821E+00
   3.017320544987654E-03 -1.470873374847897E-03 -6.479789473019090E-04
2451779.500000000 = A.D. 2000-Aug-23 00:00:00.0000 TDB 
  -9.168277057274130E+00 -2.831566117824595E+01  5.682165007400905E+00
   3.108771242450173E-03 -1.405694375136608E-03 -7.048897514316792E-04
2451784.500000000 = A.D. 2000-Aug-28 00:00:00.0000 TDB 
  -9.152693351946153E+00 -2.832282557672218E+01  5.678349161983945E+00
   3.099533247272822E-03 -1.476683977470530E-03 -8.041749759862836E-04
2451789.500000000 = A.D. 2000-Sep-02 00:00:00.0000 TDB 
  -9.137431715609127E+00 -2.833042292719148E+01  5.674392597742857E+00
   3.009091626624061E-03 -1.540418446405139E-03 -7.504553978278483E-04
2451794.500000000 = A.D. 2000-Sep-07 00:00:00.0000 TDB 
  -9.122427982144911E+00 -2.833798792986948E+01  5.670927466205271E+00
   3.018537518819474E-03 -1.467156433660446E-03 -6.516486508095769E-04
2451799.500000000 = A.D. 2000-Sep-12 00:00:00.0000 TDB 
  -9.107105825065442E+00 -2.834510520909156E+01  5.667614360541095E+00
   3.108854586940920E-03 -1.399801496503840E-03 -7.030760003874339E-04
2451804.500000000 = A.D. 2000-Sep-17 00:00:00.0000 TDB 
  -9.091512375727183E+00 -2.835222768909559E+01  5.663811336229460E+00
   3.102399266270724E-03 -1.469456914598448E-03 -8.050456051691218E-04
2451809.500000000 = A.D. 2000-Sep-22 00:00:00.0000 TDB 
  -9.076224820545821E+00 -2.835978407582908E+01  5.659837836694407E+00
   3.012504072078777E-03 -1.534801459130055E-03 -7.549041866173978E-04
2451814.500000000 = A.D. 2000-Sep-27 00:00:00.0000 TDB 
  -9.061210326610480E+00 -2.836732877722669E+01  5.656348882013102E+00
   3.017808486899938E-03 -1.463440129171631E-03 -6.519574950937750E-04
2451819.500000000 = A.D. 2000-Oct-02 00:00:00.0000 TDB 
  -9.045894663602436E+00 -2.837442816112520E+01  5.653038190467361E+00
   3.109171949424413E-03 -1.393076391568015E-03 -7.003542189416694E-04
2451824.500000000 = A.D. 2000-Oct-07 00:00:00.0000 TDB 
  -9.030292911682377E+00 -2.838151170252466E+01  5.649245643586439E+00
   3.108194245017809E-03 -1.459219398024352E-03 -8.062342842161855E-04
2451829.500000000 = A.D. 2000-Oct-12 00:00:00.0000 TDB 
  -9.014980451548745E+00 -2.838902563184786E+01  5.645259204042393E+00
   3.016552987219085E-03 -1.529391270564204E-03 -7.608247799441409E-04
2451834.500000000 = A.D. 2000-Oct-17 00:00:00.0000 TDB 
  -8.999955701692526E+00 -2.839654895059147E+01  5.641748888618594E+00
   3.016218359768347E-03 -1.462172950139837E-03 -6.547004179583029E-04
2451839.500000000 = A.D. 2000-Oct-22 00:00:00.0000 TDB 
  -8.984644886637991E+00 -2.840362968760665E+01  5.638438860624158E+00
   3.107968197172043E-03 -1.387225150421622E-03 -6.964009386983888E-04
2451844.500000000 = A.D. 2000-Oct-27 00:00:00.0000 TDB 
  -8.969033458601116E+00 -2.841067356825881E+01  5.634655437715813E+00
   3.112813809302982E-03 -1.448661884196279E-03 -8.048958284283784E-04
2451849.500000000 = A.D. 2000-Nov-01 00:00:00.0000 TDB 
  -8.953696571315453E+00 -2.841814593338735E+01  5.630655300945312E+00
   3.022281681554878E-03 -1.522143601957200E-03 -7.667591551517711E-04
2451854.500000000 = A.D. 2000-Nov-06 00:00:00.0000 TDB 
  -8.938663154035305E+00 -2.842564929992327E+01  5.627123985628864E+00
   3.016239826573774E-03 -1.459801658109863E-03 -6.585014111872825E-04
2451859.500000000 = A.D. 2000-Nov-11 00:00:00.0000 TDB 
  -8.923358527750635E+00 -2.843271212747941E+01  5.623815686992667E+00
   3.106334157208236E-03 -1.383254833427891E-03 -6.947273041006913E-04
2451864.500000000 = A.D. 2000-Nov-16 00:00:00.0000 TDB 
  -8.907736351779279E+00 -2.843971463738453E+01  5.620042114095979E+00
   3.116162337936802E-03 -1.439672950444059E-03 -8.038855386523878E-04
2451869.500000000 = A.D. 2000-Nov-21 00:00:00.0000 TDB 
  -8.892373539969304E+00 -2.844714285519649E+01  5.616029652034875E+00
   3.026136844466287E-03 -1.514683906618915E-03 -7.691250441122914E-04
2451874.500000000 = A.D. 2000-Nov-26 00:00:00.0000 TDB 
  -8.877331436494170E+00 -2.845462777874357E+01  5.612474800182015E+00
   3.016550860262232E-03 -1.456438662183668E-03 -6.612369257857662E-04
2451879.500000000 = A.D. 2000-Dec-01 00:00:00.0000 TDB 
  -8.862032788297004E+00 -2.846167483172270E+01  5.609164349853865E+00
   3.107662625260884E-03 -1.376704600662771E-03 -6.941038137853498E-04
2451884.500000000 = A.D. 2000-Dec-06 00:00:00.0000 TDB 
  -8.846402409246615E+00 -2.846863633730179E+01  5.605404303603000E+00
   3.120080952548987E-03 -1.430677420181656E-03 -8.038889566892454E-04
2451889.500000000 = A.D. 2000-Dec-11 00:00:00.0000 TDB 
  -8.831016032414968E+00 -2.847602030065674E+01  5.601383660840416E+00
   3.029234554663041E-03 -1.509894042000487E-03 -7.744602627694027E-04
2451894.500000000 = A.D. 2000-Dec-16 00:00:00.0000 TDB 
  -8.815961831073478E+00 -2.848348430151077E+01  5.597803223889152E+00
   3.015882440716600E-03 -1.453966855897743E-03 -6.637123289968962E-04
2451899.500000000 = A.D. 2000-Dec-21 00:00:00.0000 TDB 
  -8.800666735235547E+00 -2.849051378089766E+01  5.594489146627383E+00
   3.106772727745336E-03 -1.370404117730888E-03 -6.900594843782911E-04
2451904.500000000 = A.D. 2000-Dec-26 00:00:00.0000 TDB 
  -8.785030299466595E+00 -2.849743720692848E+01  5.590741525622716E+00
   3.124694297811384E-03 -1.420297641693657E-03 -8.029141361224311E-04
2451909.500000000 = A.D. 2000-Dec-31 00:00:00.0000 TDB 
  -8.769621877821667E+00 -2.850477896999728E+01  5.586711966345916E+00
   3.034712833848966E-03 -1.502990393664534E-03 -7.805673375679830E-04
